HST                     
1 20580U 90037B   26183.13746576  .00008151  00000+0  25728-3 0  9994
2 20580  28.4736 338.3859 0001559 329.1598  30.8906 15.30927115790863
POLAR                   
1 23802U 96013A   26181.90122648  .00000200  00000+0  00000+0 0  9994
2 23802  79.8715 226.8903 6484175 208.6086  90.7324  1.29846086145031
SWAS                    
1 25560U 98071A   26183.18899546  .00002487  00000+0  16045-3 0  9992
2 25560  69.8937 188.8297 0008398 245.1415 114.8876 15.09692974499532
CXO                     
1 25867U 99040B   26185.24501744  .00000765  00000+0  00000+0 0  9995
2 25867  56.3727 116.2458 7810468 310.0498   0.5720  0.37797064 17382
XMM-NEWTON              
1 25989U 99066A   26181.31376484  .00000075  00000+0  00000+0 0  9997
2 25989  64.4187 282.8185 4670815  64.6474   0.0796  0.50127122 23075
TERRA                   
1 25994U 99068A   26183.22300821  .00000467  00000+0  10391-3 0  9992
2 25994  97.9448 232.1726 0002722 149.3750 284.6419 14.61115325411804
CLUSTER II-FM7 (SAMBA)  
1 26410U 00041A   26183.75752675  .00012787  00000+0  00000+0 0  9995
2 26410 149.8840  53.4423 9072869 270.8480 359.6360  0.44834504 20376
CLUSTER II-FM8 (TANGO)  
1 26464U 00045B   26181.94601251  .00015784  00000+0  00000+0 0  9990
2 26464 150.1096  54.2616 9074787 271.4997   2.3331  0.44420098 20376
ODIN                    
1 26702U 01007A   26183.11825946  .00279824  00000+0  13413-2 0  9996
2 26702  97.3778 225.0778 0005951 134.9782 225.1970 15.81970381391759
TIMED                   
1 26998U 01055B   26183.19546011  .00001111  00000+0  10438-3 0  9994
2 26998  74.0661 204.7989 0001845 314.6105  45.4929 14.95322671333065
CORIOLIS                
1 27640U 03001A   26183.27668728  .00000119  00000+0  76335-4 0  9997
2 27640  98.7127 189.9311 0014250 164.7519 195.4089 14.19948960216367
SORCE                   
1 27651U 03004A   26183.28154425  .00003031  00000+0  22699-3 0  9996
2 27651  39.9888 175.5531 0017042 164.6758 195.4555 15.03783164274179
MOST                    
1 27843U 03031D   26183.27618103  .00000075  00000+0  54350-4 0  9991
2 27843  98.7045 190.7914 0009327 202.7457 157.3308 14.21325588192859
SCISAT 1                
1 27858U 03036A   26183.28467134  .00000727  00000+0  97422-4 0  9990
2 27858  73.9295 141.3461 0008007 211.1919 148.8784 14.81465506233688
SWIFT                   
1 28485U 04047A   26183.00056270  .00065176  00000+0  51102-3 0  9998
2 28485  20.5532  70.5121 0000876 156.1810 203.8677 15.69785059189191
HINODE (SOLAR-B)        
1 29479U 06041A   26183.03803335  .00000769  00000+0  14038-3 0  9997
2 29479  98.0543 198.9715 0016169 238.4061 121.5566 14.68643442 57054
SHIJIAN-6 02A (SJ-6 02A)
1 29505U 06046A   26183.32843088  .00008237  00000+0  41869-3 0  9993
2 29505  97.6346 224.5097 0004684  91.8684 268.3086 15.17119579 74566
SHIJIAN-6 02B (SJ-6 02B)
1 29506U 06046B   26183.34173574  .00001513  00000+0  12176-3 0  9991
2 29506  97.7148 212.3069 0014939  17.1953 342.9774 15.01414017 73016
FGRST (GLAST)           
1 33053U 08029A   26183.15735134  .00003505  00000+0  12692-3 0  9997
2 33053  25.5819 100.5283 0008390 140.8430 219.2716 15.24014089998126
SDO                     
1 36395U 10005A   26181.24558567 -.00000090  00000+0  00000+0 0  9990
2 36395  34.6771  86.1450 0001493  51.4419 126.9147  1.00270579 60198
CRYOSAT 2               
1 36508U 10013A   26183.31284756  .00000129  00000+0  31232-4 0  9999
2 36508  92.0362 280.9786 0002179  96.0072 264.1384 14.51895329860277
X-SAT                   
1 37389U 11015C   26183.24944791  .00000433  00000+0  20158-3 0  9996
2 37389  98.3514 159.5562 0013007 302.6158  57.3766 14.25211868789827
GCOM-W1 (SHIZUKU)       
1 38337U 12025A   26183.28933760  .00000535  00000+0  12863-3 0  9997
2 38337  98.2022 123.6165 0001558  68.2550  56.4202 14.57138776751234
NUSTAR                  
1 38358U 12031A   26183.33335648  .00009401  00000+0  52423-3 0  9991
2 38358   6.0260 280.5374 0008450 329.3248 177.0859 15.08945928  1302
NEOSSAT                 
1 39089U 13009D   26182.98303878  .00000155  00000+0  68390-4 0  9997
2 39089  98.4182   2.6642 0010607 196.3650 163.7195 14.35831632698862
BRITE-AUSTRIA           
1 39091U 13009F   26183.25290849  .00000205  00000+0  84421-4 0  9993
2 39091  98.4000   2.3161 0009940 188.4657 171.6363 14.36548177699219
IRIS                    
1 39197U 13033A   26183.11446128  .00001086  00000+0  13039-3 0  9999
2 39197  97.9322  22.3445 0022952 270.3766  89.4819 14.85914621702597
HISAKI (SPRINT-A)       
1 39253U 13049A   26183.22691772  .00000086  00000+0  29056-4 0  9994
2 39253  29.7179 143.5452 0136883 138.7838 222.3160 13.55545853633462
CASSIOPE                
1 39265U 13055A   26183.24423643  .00046271 -32603-6  49943-3 0  9990
2 39265  80.9129  48.4175 0286942  11.7756 348.9996 15.26572843669960
STSAT-3                 
1 39422U 13066G   26183.22740924  .00004238  00000+0  32052-3 0  9997
2 39422  97.6218 152.8743 0009629 358.6714   1.4484 15.02839003686467
SWARM B                 
1 39451U 13067A   26183.32176096  .00004236  00000+0  15094-3 0  9999
2 39451  87.7452 337.7176 0002832  80.2465 279.9104 15.28646368685551
